{
  "type": "FeatureCollection",
  "features": [
    {
      "type": "Feature",
      "properties": {
        "norad_id": 31307,
        "name": "GALAXY 17 (G-17)",
        "group": "intelsat",
        "lat": -1.789453344697573,
        "lon": -52.45567838008219,
        "alt_km": 35774.029071424404,
        "timestamp": "2025-12-13T20:38:50.662790+00:00",
        "meta_object_name": "GALAXY 17 (G-17)",
        "meta_object_id": "2007-016B",
        "meta_epoch": "2025-12-13T04:29:08.293056",
        "meta_mean_motion": 1.00272443,
        "meta_eccentricity": 0.00057852,
        "meta_inclination": 2.5014,
        "meta_ra_of_asc_node": 82.2803,
        "meta_arg_of_pericenter": 164.913,
        "meta_mean_anomaly": 177.2332,
        "meta_ephemeris_type": 0,
        "meta_classification_type": "U",
        "meta_norad_cat_id": 31307,
        "meta_element_set_no": 999,
        "meta_rev_at_epoch": 6793,
        "meta_bstar": 0,
        "meta_mean_motion_dot": -1.93e-06,
        "meta_mean_motion_ddot": 0,
        "tle_line1": "1 31307U 07016B   25347.18690154 -.00000193  00000+0  00000+0 0  9995",
        "tle_line2": "2 31307   2.5014  82.2803 0005785 164.9130 177.2332  1.00272443 67933"
      },
      "geometry": {
        "type": "Point",
        "coordinates": [
          -52.45567838008219,
          -1.789453344697573
        ]
      }
    },
    {
      "type": "Feature",
      "properties": {
        "norad_id": 31862,
        "name": "DIRECTV 10",
        "group": "intelsat",
        "lat": 0.003498496772509895,
        "lon": -70.2944933220994,
        "alt_km": 35785.887336344356,
        "timestamp": "2025-12-13T20:38:50.662808+00:00",
        "meta_object_name": "DIRECTV 10",
        "meta_object_id": "2007-032A",
        "meta_epoch": "2025-12-12T23:15:53.301024",
        "meta_mean_motion": 1.0027112,
        "meta_eccentricity": 2.941e-05,
        "meta_inclination": 0.0079,
        "meta_ra_of_asc_node": 209.5146,
        "meta_arg_of_pericenter": 8.2783,
        "meta_mean_anomaly": 110.3026,
        "meta_ephemeris_type": 0,
        "meta_classification_type": "U",
        "meta_norad_cat_id": 31862,
        "meta_element_set_no": 999,
        "meta_rev_at_epoch": 4372,
        "meta_bstar": 0,
        "meta_mean_motion_dot": -9e-07,
        "meta_mean_motion_ddot": 0,
        "tle_line1": "1 31862U 07032A   25346.96936691 -.00000090  00000+0  00000+0 0  9999",
        "tle_line2": "2 31862   0.0079 209.5146 0000294   8.2783 110.3026  1.00271120 43721"
      },
      "geometry": {
        "type": "Point",
        "coordinates": [
          -70.2944933220994,
          0.003498496772509895
        ]
      }
    },
    {
      "type": "Feature",
      "properties": {
        "norad_id": 32253,
        "name": "INTELSAT 11 (IS-11)",
        "group": "intelsat",
        "lat": 0.39327108877303496,
        "lon": -106.74324306472082,
        "alt_km": 36094.772032123255,
        "timestamp": "2025-12-13T20:38:50.662820+00:00",
        "meta_object_name": "INTELSAT 11 (IS-11)",
        "meta_object_id": "2007-044B",
        "meta_epoch": "2025-12-13T04:13:38.758656",
        "meta_mean_motion": 0.99048956,
        "meta_eccentricity": 0.00088413,
        "meta_inclination": 3.0815,
        "meta_ra_of_asc_node": 80.972,
        "meta_arg_of_pericenter": 166.082,
        "meta_mean_anomaly": 122.2227,
        "meta_ephemeris_type": 0,
        "meta_classification_type": "U",
        "meta_norad_cat_id": 32253,
        "meta_element_set_no": 999,
        "meta_rev_at_epoch": 6660,
        "meta_bstar": 0,
        "meta_mean_motion_dot": 7.7e-07,
        "meta_mean_motion_ddot": 0,
        "tle_line1": "1 32253U 07044B   25347.17614304  .00000077  00000+0  00000+0 0  9999",
        "tle_line2": "2 32253   3.0815  80.9720 0008841 166.0820 122.2227  0.99048956 66600"
      },
      "geometry": {
        "type": "Point",
        "coordinates": [
          -106.74324306472082,
          0.39327108877303496
        ]
      }
    },
    {
      "type": "Feature",
      "properties": {
        "norad_id": 32388,
        "name": "HORIZONS-2",
        "group": "intelsat",
        "lat": -1.7631652663414596,
        "lon": -41.293372045446525,
        "alt_km": 35772.46497540992,
        "timestamp": "2025-12-13T20:38:50.662832+00:00",
        "meta_object_name": "HORIZONS-2",
        "meta_object_id": "2007-063B",
        "meta_epoch": "2025-12-13T04:32:15.494208",
        "meta_mean_motion": 1.00269759,
        "meta_eccentricity": 0.00048699,
        "meta_inclination": 2.1228,
        "meta_ra_of_asc_node": 82.9566,
        "meta_arg_of_pericenter": 190.5254,
        "meta_mean_anomaly": 162.905,
        "meta_ephemeris_type": 0,
        "meta_classification_type": "U",
        "meta_norad_cat_id": 32388,
        "meta_element_set_no": 999,
        "meta_rev_at_epoch": 6594,
        "meta_bstar": 0,
        "meta_mean_motion_dot": -2.4e-06,
        "meta_mean_motion_ddot": 0,
        "tle_line1": "1 32388U 07063B   25347.18906822 -.00000240  00000+0  00000+0 0  9992",
        "tle_line2": "2 32388   2.1228  82.9566 0004869 190.5254 162.9050  1.00269759 65946"
      },
      "geometry": {
        "type": "Point",
        "coordinates": [
          -41.293372045446525,
          -1.7631652663414596
        ]
      }
    },
    {
      "type": "Feature",
      "properties": {
        "norad_id": 32729,
        "name": "DIRECTV 11",
        "group": "intelsat",
        "lat": -0.004456444196767106,
        "lon": -66.69969154274705,
        "alt_km": 35786.99204314355,
        "timestamp": "2025-12-13T20:38:50.662844+00:00",
        "meta_object_name": "DIRECTV 11",
        "meta_object_id": "2008-013A",
        "meta_epoch": "2025-12-12T21:34:07.285152",
        "meta_mean_motion": 1.00271941,
        "meta_eccentricity": 2.766e-05,
        "meta_inclination": 0.0293,
        "meta_ra_of_asc_node": 167.0626,
        "meta_arg_of_pericenter": 342.976,
        "meta_mean_anomaly": 156.139,
        "meta_ephemeris_type": 0,
        "meta_classification_type": "U",
        "meta_norad_cat_id": 32729,
        "meta_element_set_no": 999,
        "meta_rev_at_epoch": 4372,
        "meta_bstar": 0,
        "meta_mean_motion_dot": -1.13e-06,
        "meta_mean_motion_ddot": 0,
        "tle_line1": "1 32729U 08013A   25346.89869543 -.00000113  00000+0  00000+0 0  9991",
        "tle_line2": "2 32729   0.0293 167.0626 0000276 342.9760 156.1390  1.00271941 43729"
      },
      "geometry": {
        "type": "Point",
        "coordinates": [
          -66.69969154274705,
          -0.004456444196767106
        ]
      }
    },
    {
      "type": "Feature",
      "properties": {
        "norad_id": 32951,
        "name": "GALAXY 18 (G-18)",
        "group": "intelsat",
        "lat": -0.0061809781108089264,
        "lon": -90.51877411124941,
        "alt_km": 35773.82319311397,
        "timestamp": "2025-12-13T20:38:50.662856+00:00",
        "meta_object_name": "GALAXY 18 (G-18)",
        "meta_object_id": "2008-024A",
        "meta_epoch": "2025-12-13T04:05:38.557824",
        "meta_mean_motion": 1.00271847,
        "meta_eccentricity": 0.00028838,
        "meta_inclination": 0.0022,
        "meta_ra_of_asc_node": 55.4008,
        "meta_arg_of_pericenter": 213.196,
        "meta_mean_anomaly": 111.9115,
        "meta_ephemeris_type": 0,
        "meta_classification_type": "U",
        "meta_norad_cat_id": 32951,
        "meta_element_set_no": 999,
        "meta_rev_at_epoch": 4398,
        "meta_bstar": 0,
        "meta_mean_motion_dot": 3.9e-07,
        "meta_mean_motion_ddot": 0,
        "tle_line1": "1 32951U 08024A   25347.17058516  .00000039  00000+0  00000+0 0  9998",
        "tle_line2": "2 32951   0.0022  55.4008 0002883 213.1960 111.9115  1.00271847 43984"
      },
      "geometry": {
        "type": "Point",
        "coordinates": [
          -90.51877411124941,
          -0.0061809781108089264
        ]
      }
    },
    {
      "type": "Feature",
      "properties": {
        "norad_id": 33153,
        "name": "INTELSAT 25 (IS-25)",
        "group": "intelsat",
        "lat": -2.198695961530865,
        "lon": 1.0635819290010702,
        "alt_km": 35789.471060958414,
        "timestamp": "2025-12-13T20:38:50.662867+00:00",
        "meta_object_name": "INTELSAT 25 (IS-25)",
        "meta_object_id": "2008-034A",
        "meta_epoch": "2025-12-13T04:44:21.834816",
        "meta_mean_motion": 1.00271778,
        "meta_eccentricity": 0.00049754,
        "meta_inclination": 2.2291,
        "meta_ra_of_asc_node": 82.6458,
        "meta_arg_of_pericenter": 180.1039,
        "meta_mean_anomaly": 218.9829,
        "meta_ephemeris_type": 0,
        "meta_classification_type": "U",
        "meta_norad_cat_id": 33153,
        "meta_element_set_no": 999,
        "meta_rev_at_epoch": 6383,
        "meta_bstar": 0,
        "meta_mean_motion_dot": -2.11e-06,
        "meta_mean_motion_ddot": 0,
        "tle_line1": "1 33153U 08034A   25347.19747494 -.00000211  00000+0  00000+0 0  9999",
        "tle_line2": "2 33153   2.2291  82.6458 0004975 180.1039 218.9829  1.00271778 63835"
      },
      "geometry": {
        "type": "Point",
        "coordinates": [
          1.0635819290010702,
          -2.198695961530865
        ]
      }
    }
  ]
}